STARLINK-2642
1 28437C 21040K   21325.11426053  .00004632  00000-0  32420-3 0  3250
2 28437  53.0172  37.8499 0001084  80.4555 340.2076 15.04771170    12
